{"type":"FeatureCollection","features":[{"type":"Feature","properties":{"name":"Antrim","fips":"26009"},"geometry":{"type":"Polygon","coordinates":[[[-85.333,44.812],[-85.442,44.86],[-85.396,44.931],[-85.378,44.999],[-85.381,45.046],[-85.366,45.069],[-85.367,45.117],[-85.388,45.208],[-85.223,45.206],[-85.224,45.118],[-84.858,45.117],[-84.847,44.858],[-85.292,44.86],[-85.333,44.812]]]}},{"type":"Feature","properties":{"name":"Barry","fips":"26015"},"geometry":{"type":"Polygon","coordinates":[[[-85.074,42.771],[-85.072,42.421],[-85.543,42.421],[-85.546,42.768],[-85.074,42.771]]]}},{"type":"Feature","properties":{"name":"Branch","fips":"26023"},"geometry":{"type":"Polygon","coordinates":[[[-85.26,42.072],[-84.826,42.072],[-84.825,41.76],[-85.292,41.76],[-85.294,42.072],[-85.26,42.072]]]}},{"type":"Feature","properties":{"name":"Clare","fips":"26035"},"geometry":{"type":"Polygon","coordinates":[[[-84.608,44.16],[-84.606,43.815],[-85.089,43.814],[-85.087,44.164],[-84.608,44.16]]]}},{"type":"Feature","properties":{"name":"Clinton","fips":"26037"},"geometry":{"type":"Polygon","coordinates":[[[-84.368,43.118],[-84.364,42.77],[-84.837,42.77],[-84.837,43.119],[-84.368,43.118]]]}},{"type":"Feature","properties":{"name":"Eaton","fips":"26045"},"geometry":{"type":"Polygon","coordinates":[[[-84.6,42.422],[-85.072,42.421],[-85.074,42.771],[-84.603,42.77],[-84.6,42.422]]]}},{"type":"Feature","properties":{"name":"Gratiot","fips":"26057"},"geometry":{"type":"Polygon","coordinates":[[[-84.608,43.466],[-84.37,43.466],[-84.368,43.118],[-84.837,43.119],[-84.846,43.466],[-84.608,43.466]]]}},{"type":"Feature","properties":{"name":"Houghton","fips":"26061"},"geometry":{"type":"Polygon","coordinates":[[[-88.451,46.939],[-88.552,46.938],[-88.552,46.852],[-88.679,46.852],[-88.679,46.42],[-88.991,46.42],[-88.99,46.68],[-88.865,46.679],[-88.864,46.765],[-88.933,46.765],[-88.933,47.032],[-88.889,47.101],[-88.848,47.115],[-88.814,47.142],[-88.764,47.156],[-88.673,47.219],[-88.573,47.246],[-88.512,47.286],[-88.299,47.286],[-88.298,47.2],[-88.228,47.2],[-88.242,47.175],[-88.243,47.158],[-88.232,47.146],[-88.248,47.136],[-88.272,47.144],[-88.289,47.13],[-88.298,47.098],[-88.347,47.079],[-88.368,47.018],[-88.411,46.978],[-88.444,46.972],[-88.451,46.939]]]}},{"type":"Feature","properties":{"name":"Isabella","fips":"26073"},"geometry":{"type":"Polygon","coordinates":[[[-85.085,43.466],[-85.089,43.814],[-84.606,43.815],[-84.608,43.466],[-85.085,43.466]]]}},{"type":"Feature","properties":{"name":"Kalamazoo","fips":"26077"},"geometry":{"type":"Polygon","coordinates":[[[-85.299,42.42],[-85.294,42.072],[-85.763,42.069],[-85.764,42.421],[-85.299,42.42]]]}},{"type":"Feature","properties":{"name":"Keweenaw","fips":"26083"},"geometry":{"type":"MultiPolygon","coordinates":[[[[-88.684,48.116],[-88.657,48.139],[-88.547,48.175],[-88.525,48.165],[-88.501,48.168],[-88.482,48.18],[-88.423,48.191],[-88.42,48.171],[-88.46,48.159],[-88.567,48.094],[-88.578,48.084],[-88.58,48.059],[-88.67,48.011],[-88.899,47.953],[-88.963,47.923],[-88.969,47.902],[-88.958,47.895],[-88.9,47.902],[-88.912,47.891],[-89.158,47.824],[-89.193,47.833],[-89.202,47.85],[-89.234,47.852],[-89.228,47.858],[-89.255,47.876],[-89.179,47.935],[-88.941,48.02],[-88.915,48.021],[-88.836,48.057],[-88.788,48.063],[-88.764,48.085],[-88.684,48.116]]],[[[-88.512,47.286],[-88.419,47.371],[-88.284,47.423],[-88.238,47.43],[-88.218,47.449],[-88.182,47.458],[-88.011,47.478],[-87.801,47.473],[-87.716,47.44],[-87.71,47.406],[-87.751,47.405],[-87.815,47.385],[-87.882,47.396],[-87.957,47.387],[-87.966,47.369],[-87.939,47.347],[-87.943,47.336],[-88.06,47.296],[-88.163,47.216],[-88.228,47.2],[-88.298,47.2],[-88.299,47.286],[-88.512,47.286]]]]}},{"type":"Feature","properties":{"name":"Lake","fips":"26085"},"geometry":{"type":"Polygon","coordinates":[[[-86.042,44.167],[-85.565,44.165],[-85.562,43.816],[-86.038,43.816],[-86.042,44.167]]]}},{"type":"Feature","properties":{"name":"Lenawee","fips":"26091"},"geometry":{"type":"Polygon","coordinates":[[[-83.88,41.72],[-84.36,41.707],[-84.363,42.074],[-83.774,42.082],[-83.763,41.724],[-83.88,41.72]]]}},{"type":"Feature","properties":{"name":"Mackinac","fips":"26097"},"geometry":{"type":"MultiPolygon","coordinates":[[[[-84.593,45.817],[-84.624,45.847],[-84.651,45.859],[-84.642,45.886],[-84.608,45.862],[-84.578,45.82],[-84.433,45.787],[-84.421,45.793],[-84.419,45.807],[-84.403,45.784],[-84.356,45.77],[-84.372,45.746],[-84.406,45.722],[-84.484,45.731],[-84.593,45.817]]],[[[-84.114,45.978],[-84.172,45.966],[-84.238,45.968],[-84.255,45.956],[-84.33,45.956],[-84.376,45.932],[-84.429,45.958],[-84.443,45.978],[-84.463,45.969],[-84.486,45.989],[-84.507,45.991],[-84.514,45.971],[-84.532,45.969],[-84.533,46.006],[-84.544,46.023],[-84.564,46.032],[-84.609,46.026],[-84.657,46.053],[-84.693,46.027],[-84.685,45.974],[-84.723,45.967],[-84.739,45.946],[-84.714,45.92],[-84.734,45.907],[-84.702,45.85],[-84.747,45.836],[-84.831,45.872],[-84.842,45.898],[-84.918,45.931],[-84.937,45.956],[-85.014,46.011],[-85.103,46.032],[-85.141,46.05],[-85.198,46.045],[-85.222,46.061],[-85.268,46.066],[-85.335,46.093],[-85.381,46.082],[-85.409,46.101],[-85.442,46.096],[-85.447,46.085],[-85.513,46.095],[-85.604,46.03],[-85.664,45.967],[-85.698,45.96],[-85.809,45.98],[-85.842,45.965],[-85.865,45.968],[-85.865,46.245],[-85.113,46.246],[-85.112,46.158],[-84.364,46.158],[-84.363,46.072],[-84.239,46.072],[-84.239,45.985],[-84.114,45.978]]]]}},{"type":"Feature","properties":{"name":"Marquette","fips":"26103"},"geometry":{"type":"Polygon","coordinates":[[[-88.045,46.913],[-87.9,46.91],[-87.847,46.884],[-87.817,46.891],[-87.782,46.88],[-87.766,46.861],[-87.741,46.865],[-87.726,46.827],[-87.695,46.827],[-87.681,46.843],[-87.672,46.82],[-87.633,46.812],[-87.595,46.783],[-87.583,46.73],[-87.523,46.688],[-87.503,46.648],[-87.468,46.636],[-87.464,46.615],[-87.443,46.603],[-87.384,46.593],[-87.382,46.58],[-87.393,46.571],[-87.376,46.547],[-87.394,46.533],[-87.367,46.507],[-87.259,46.488],[-87.117,46.495],[-87.116,46.159],[-87.242,46.159],[-87.243,45.985],[-87.617,45.986],[-87.616,46.247],[-88.117,46.247],[-88.116,46.678],[-87.992,46.679],[-88.045,46.765],[-88.045,46.913]]]}},{"type":"Feature","properties":{"name":"Mecosta","fips":"26107"},"geometry":{"type":"Polygon","coordinates":[[[-85.562,43.468],[-85.562,43.816],[-85.089,43.814],[-85.085,43.466],[-85.562,43.468]]]}},{"type":"Feature","properties":{"name":"Midland","fips":"26111"},"geometry":{"type":"Polygon","coordinates":[[[-84.37,43.466],[-84.608,43.466],[-84.606,43.815],[-84.167,43.826],[-84.171,43.482],[-84.37,43.466]]]}},{"type":"Feature","properties":{"name":"Montcalm","fips":"26117"},"geometry":{"type":"Polygon","coordinates":[[[-85.312,43.119],[-85.312,43.294],[-85.562,43.294],[-85.562,43.468],[-84.846,43.466],[-84.837,43.119],[-85.312,43.119]]]}},{"type":"Feature","properties":{"name":"Newaygo","fips":"26123"},"geometry":{"type":"Polygon","coordinates":[[[-85.562,43.294],[-86.039,43.294],[-86.038,43.816],[-85.562,43.816],[-85.562,43.294]]]}},{"type":"Feature","properties":{"name":"Osceola","fips":"26133"},"geometry":{"type":"Polygon","coordinates":[[[-85.087,44.164],[-85.089,43.814],[-85.562,43.816],[-85.565,44.165],[-85.087,44.164]]]}},{"type":"Feature","properties":{"name":"Roscommon","fips":"26143"},"geometry":{"type":"Polygon","coordinates":[[[-84.608,44.16],[-84.852,44.161],[-84.851,44.511],[-84.371,44.507],[-84.368,44.16],[-84.608,44.16]]]}},{"type":"Feature","properties":{"name":"Shiawassee","fips":"26155"},"geometry":{"type":"Polygon","coordinates":[[[-84.366,42.955],[-84.368,43.129],[-83.929,43.133],[-83.922,42.781],[-84.364,42.776],[-84.366,42.955]]]}},{"type":"Feature","properties":{"name":"Washtenaw","fips":"26161"},"geometry":{"type":"Polygon","coordinates":[[[-83.542,42.174],[-83.539,42.086],[-84.132,42.072],[-84.131,42.425],[-83.552,42.435],[-83.542,42.174]]]}},{"type":"Feature","properties":{"name":"Wexford","fips":"26165"},"geometry":{"type":"Polygon","coordinates":[[[-85.335,44.165],[-85.821,44.164],[-85.818,44.513],[-85.334,44.512],[-85.335,44.165]]]}},{"type":"Feature","properties":{"name":"Alger","fips":"26003"},"geometry":{"type":"Polygon","coordinates":[[[-87.116,46.159],[-87.117,46.495],[-87.077,46.515],[-87.017,46.533],[-86.977,46.527],[-86.947,46.485],[-86.947,46.472],[-86.889,46.459],[-86.875,46.437],[-86.816,46.438],[-86.804,46.467],[-86.769,46.479],[-86.736,46.475],[-86.698,46.439],[-86.686,46.455],[-86.684,46.498],[-86.702,46.512],[-86.709,46.544],[-86.678,46.561],[-86.653,46.561],[-86.627,46.534],[-86.646,46.486],[-86.627,46.477],[-86.609,46.493],[-86.609,46.47],[-86.586,46.463],[-86.469,46.551],[-86.437,46.549],[-86.35,46.578],[-86.162,46.669],[-86.138,46.673],[-86.12,46.657],[-86.1,46.655],[-85.865,46.69],[-85.865,46.505],[-86.365,46.506],[-86.365,46.332],[-86.615,46.333],[-86.616,46.159],[-87.116,46.159]]]}},{"type":"Feature","properties":{"name":"Allegan","fips":"26005"},"geometry":{"type":"Polygon","coordinates":[[[-85.782,42.768],[-85.546,42.768],[-85.543,42.421],[-86.274,42.419],[-86.25,42.48],[-86.226,42.593],[-86.229,42.638],[-86.209,42.692],[-86.209,42.767],[-85.782,42.768]]]}},{"type":"Feature","properties":{"name":"Alpena","fips":"26007"},"geometry":{"type":"Polygon","coordinates":[[[-83.388,45.207],[-83.364,45.166],[-83.316,45.142],[-83.308,45.099],[-83.266,45.027],[-83.34,45.041],[-83.368,45.062],[-83.399,45.07],[-83.434,45.058],[-83.454,45.032],[-83.431,45.008],[-83.45,44.99],[-83.444,44.952],[-83.394,44.903],[-83.32,44.881],[-83.321,44.858],[-83.888,44.856],[-83.881,45.202],[-83.388,45.207]]]}},{"type":"Feature","properties":{"name":"Bay","fips":"26017"},"geometry":{"type":"Polygon","coordinates":[[[-83.699,43.479],[-83.818,43.479],[-83.916,43.523],[-84.051,43.524],[-84.05,43.567],[-84.168,43.569],[-84.166,43.997],[-84.045,43.997],[-84.045,43.911],[-83.911,43.91],[-83.926,43.787],[-83.945,43.76],[-83.956,43.759],[-83.939,43.715],[-83.897,43.664],[-83.852,43.645],[-83.771,43.629],[-83.77,43.635],[-83.726,43.619],[-83.699,43.597],[-83.699,43.479]]]}},{"type":"Feature","properties":{"name":"Benzie","fips":"26019"},"geometry":{"type":"Polygon","coordinates":[[[-86.234,44.518],[-86.221,44.567],[-86.225,44.595],[-86.259,44.664],[-86.249,44.699],[-86.161,44.728],[-86.106,44.731],[-86.089,44.742],[-86.073,44.778],[-85.815,44.775],[-85.818,44.513],[-86.234,44.518]]]}},{"type":"Feature","properties":{"name":"Berrien","fips":"26021"},"geometry":{"type":"Polygon","coordinates":[[[-86.582,41.944],[-86.485,42.118],[-86.365,42.243],[-86.224,42.243],[-86.226,41.76],[-86.825,41.76],[-86.679,41.845],[-86.619,41.894],[-86.582,41.944]]]}},{"type":"Feature","properties":{"name":"Cass","fips":"26027"},"geometry":{"type":"Polygon","coordinates":[[[-86.223,42.072],[-85.763,42.069],[-85.76,41.799],[-85.791,41.759],[-86.226,41.76],[-86.223,42.072]]]}},{"type":"Feature","properties":{"name":"Cheboygan","fips":"26031"},"geometry":{"type":"Polygon","coordinates":[[[-84.732,45.788],[-84.716,45.766],[-84.555,45.702],[-84.462,45.652],[-84.442,45.655],[-84.427,45.669],[-84.376,45.656],[-84.329,45.664],[-84.204,45.627],[-84.252,45.626],[-84.247,45.199],[-84.734,45.202],[-84.732,45.788]]]}},{"type":"Feature","properties":{"name":"Chippewa","fips":"26033"},"geometry":{"type":"Polygon","coordinates":[[[-84.108,46.241],[-84.147,46.224],[-84.183,46.236],[-84.219,46.232],[-84.249,46.206],[-84.251,46.176],[-84.221,46.163],[-84.197,46.166],[-84.177,46.184],[-84.125,46.18],[-84.096,46.148],[-84.06,46.146],[-84.026,46.132],[-84.061,46.114],[-84.072,46.092],[-83.99,46.033],[-83.944,46.032],[-83.9,45.999],[-83.868,45.995],[-83.845,46.026],[-83.83,46.022],[-83.818,46.002],[-83.794,45.996],[-83.765,46.018],[-83.774,46.051],[-83.797,46.057],[-83.812,46.074],[-83.824,46.104],[-83.816,46.108],[-83.772,46.091],[-83.635,46.104],[-83.581,46.09],[-83.573,46.07],[-83.547,46.048],[-83.533,46.011],[-83.481,45.996],[-83.473,45.984],[-83.517,45.924],[-83.562,45.913],[-83.658,45.946],[-83.688,45.935],[-83.786,45.933],[-83.808,45.946],[-83.835,45.942],[-83.841,45.953],[-83.881,45.968],[-83.921,45.958],[-83.985,45.967],[-84.018,45.959],[-84.09,45.967],[-84.111,45.979],[-84.239,45.985],[-84.239,46.072],[-84.363,46.072],[-84.364,46.158],[-85.112,46.158],[-85.113,46.246],[-85.238,46.245],[-85.238,46.756],[-85.173,46.764],[-85.064,46.758],[-84.99,46.772],[-84.952,46.77],[-85.008,46.728],[-85.028,46.697],[-85.037,46.601],[-85.025,46.546],[-85.056,46.526],[-85.05,46.504],[-85.015,46.48],[-84.969,46.476],[-84.937,46.489],[-84.922,46.47],[-84.861,46.47],[-84.829,46.444],[-84.769,46.453],[-84.678,46.488],[-84.631,46.485],[-84.608,46.457],[-84.552,46.419],[-84.504,46.439],[-84.472,46.434],[-84.456,46.454],[-84.463,46.467],[-84.445,46.489],[-84.42,46.501],[-84.395,46.499],[-84.375,46.509],[-84.264,46.495],[-84.226,46.534],[-84.194,46.54],[-84.129,46.53],[-84.111,46.504],[-84.146,46.419],[-84.108,46.241]]]}},{"type":"Feature","properties":{"name":"Delta","fips":"26041"},"geometry":{"type":"Polygon","coordinates":[[[-86.46,45.758],[-86.479,45.757],[-86.486,45.747],[-86.515,45.752],[-86.537,45.708],[-86.581,45.712],[-86.588,45.666],[-86.611,45.67],[-86.628,45.659],[-86.617,45.607],[-86.687,45.634],[-86.695,45.648],[-86.708,45.649],[-86.718,45.677],[-86.705,45.691],[-86.689,45.688],[-86.666,45.702],[-86.671,45.721],[-86.633,45.748],[-86.631,45.782],[-86.583,45.778],[-86.577,45.801],[-86.557,45.808],[-86.555,45.832],[-86.528,45.857],[-86.541,45.89],[-86.583,45.899],[-86.603,45.877],[-86.626,45.868],[-86.632,45.843],[-86.646,45.834],[-86.721,45.845],[-86.75,45.868],[-86.782,45.86],[-86.773,45.811],[-86.822,45.77],[-86.822,45.757],[-86.839,45.742],[-86.839,45.722],[-86.944,45.696],[-86.964,45.673],[-86.985,45.706],[-86.975,45.753],[-86.988,45.811],[-87.005,45.832],[-87.031,45.837],[-87.058,45.809],[-87.064,45.759],[-87.053,45.748],[-87.07,45.719],[-87.059,45.709],[-87.096,45.701],[-87.112,45.686],[-87.172,45.662],[-87.264,45.55],[-87.328,45.55],[-87.326,45.899],[-87.368,45.985],[-87.243,45.985],[-87.242,46.159],[-86.49,46.158],[-86.49,45.896],[-86.46,45.758]]]}},{"type":"Feature","properties":{"name":"Dickinson","fips":"26043"},"geometry":{"type":"Polygon","coordinates":[[[-87.829,45.723],[-87.868,45.749],[-87.991,45.795],[-88.072,45.78],[-88.094,45.786],[-88.136,45.819],[-88.073,45.872],[-88.118,45.919],[-88.117,46.247],[-87.616,46.247],[-87.618,45.899],[-87.697,45.899],[-87.697,45.723],[-87.829,45.723]]]}},{"type":"Feature","properties":{"name":"Emmet","fips":"26047"},"geometry":{"type":"Polygon","coordinates":[[[-85.096,45.367],[-85.033,45.361],[-84.959,45.376],[-84.916,45.393],[-84.912,45.403],[-84.922,45.422],[-84.981,45.429],[-84.991,45.425],[-84.979,45.419],[-85.047,45.441],[-85.088,45.476],[-85.116,45.541],[-85.119,45.575],[-85.074,45.63],[-85.007,45.656],[-84.944,45.71],[-84.942,45.729],[-84.951,45.737],[-85.014,45.76],[-84.805,45.746],[-84.781,45.761],[-84.793,45.781],[-84.732,45.788],[-84.733,45.289],[-85.012,45.279],[-85.096,45.367]]]}},{"type":"Feature","properties":{"name":"Gladwin","fips":"26051"},"geometry":{"type":"Polygon","coordinates":[[[-84.608,44.16],[-84.166,44.162],[-84.167,43.826],[-84.606,43.815],[-84.608,44.16]]]}},{"type":"Feature","properties":{"name":"Ingham","fips":"26065"},"geometry":{"type":"Polygon","coordinates":[[[-84.158,42.777],[-84.141,42.425],[-84.6,42.422],[-84.603,42.77],[-84.158,42.777]]]}},{"type":"Feature","properties":{"name":"Iosco","fips":"26069"},"geometry":{"type":"Polygon","coordinates":[[[-83.318,44.512],[-83.332,44.34],[-83.344,44.33],[-83.374,44.328],[-83.43,44.27],[-83.443,44.265],[-83.448,44.274],[-83.48,44.28],[-83.525,44.262],[-83.549,44.227],[-83.565,44.163],[-83.884,44.162],[-83.887,44.509],[-83.318,44.512]]]}},{"type":"Feature","properties":{"name":"Jackson","fips":"26075"},"geometry":{"type":"Polygon","coordinates":[[[-84.132,42.072],[-84.71,42.07],[-84.719,42.422],[-84.131,42.425],[-84.132,42.072]]]}},{"type":"Feature","properties":{"name":"Kalkaska","fips":"26079"},"geometry":{"type":"Polygon","coordinates":[[[-84.851,44.511],[-85.334,44.512],[-85.333,44.812],[-85.292,44.86],[-84.847,44.858],[-84.851,44.511]]]}},{"type":"Feature","properties":{"name":"Kent","fips":"26081"},"geometry":{"type":"Polygon","coordinates":[[[-85.79,43.293],[-85.312,43.294],[-85.31,42.77],[-85.782,42.768],[-85.79,43.293]]]}},{"type":"Feature","properties":{"name":"Lapeer","fips":"26087"},"geometry":{"type":"Polygon","coordinates":[[[-83.461,43.223],[-83.352,43.235],[-83.354,43.322],[-83.12,43.327],[-83.119,43.284],[-83.0,43.285],[-82.984,42.894],[-83.453,42.88],[-83.461,43.223]]]}},{"type":"Feature","properties":{"name":"Livingston","fips":"26093"},"geometry":{"type":"Polygon","coordinates":[[[-83.686,42.783],[-83.665,42.431],[-84.141,42.425],[-84.158,42.777],[-83.686,42.783]]]}},{"type":"Feature","properties":{"name":"Luce","fips":"26095"},"geometry":{"type":"Polygon","coordinates":[[[-85.865,46.69],[-85.751,46.677],[-85.51,46.676],[-85.238,46.756],[-85.238,46.245],[-85.865,46.245],[-85.865,46.69]]]}},{"type":"Feature","properties":{"name":"Macomb","fips":"26099"},"geometry":{"type":"Polygon","coordinates":[[[-83.083,42.447],[-83.103,42.889],[-82.739,42.898],[-82.708,42.684],[-82.814,42.641],[-82.819,42.616],[-82.789,42.603],[-82.782,42.565],[-82.821,42.571],[-82.846,42.561],[-82.882,42.501],[-82.884,42.472],[-82.871,42.451],[-83.083,42.447]]]}},{"type":"Feature","properties":{"name":"Manistee","fips":"26101"},"geometry":{"type":"Polygon","coordinates":[[[-86.387,44.179],[-86.344,44.25],[-86.269,44.345],[-86.248,44.421],[-86.249,44.483],[-86.234,44.518],[-85.818,44.513],[-85.821,44.164],[-86.387,44.179]]]}},{"type":"Feature","properties":{"name":"Monroe","fips":"26115"},"geometry":{"type":"Polygon","coordinates":[[[-83.372,41.874],[-83.41,41.83],[-83.442,41.809],[-83.438,41.77],[-83.424,41.741],[-83.434,41.737],[-83.763,41.724],[-83.774,42.082],[-83.295,42.094],[-83.181,42.019],[-83.249,41.973],[-83.269,41.939],[-83.296,41.945],[-83.316,41.936],[-83.342,41.88],[-83.366,41.865],[-83.372,41.874]]]}},{"type":"Feature","properties":{"name":"Iron","fips":"26071"},"geometry":{"type":"Polygon","coordinates":[[[-88.933,46.074],[-88.991,46.097],[-88.991,46.42],[-88.117,46.42],[-88.118,45.919],[-88.175,45.945],[-88.24,45.949],[-88.25,45.963],[-88.296,45.952],[-88.376,45.989],[-88.423,45.982],[-88.49,45.991],[-88.507,46.018],[-88.532,46.021],[-88.616,45.988],[-88.666,45.988],[-88.679,46.014],[-88.74,46.027],[-88.77,46.019],[-88.816,46.022],[-88.933,46.074]]]}},{"type":"Feature","properties":{"name":"Oakland","fips":"26125"},"geometry":{"type":"Polygon","coordinates":[[[-83.317,42.442],[-83.665,42.431],[-83.689,42.871],[-83.103,42.889],[-83.083,42.447],[-83.317,42.442]]]}},{"type":"Feature","properties":{"name":"Ontonagon","fips":"26131"},"geometry":{"type":"Polygon","coordinates":[[[-89.168,46.965],[-89.129,46.993],[-89.087,46.985],[-89.038,47.0],[-88.987,46.997],[-88.933,47.032],[-88.933,46.765],[-88.864,46.765],[-88.865,46.679],[-88.99,46.68],[-88.991,46.333],[-89.365,46.333],[-89.365,46.506],[-89.742,46.505],[-89.74,46.592],[-89.865,46.593],[-89.889,46.766],[-89.849,46.796],[-89.791,46.819],[-89.718,46.831],[-89.673,46.833],[-89.619,46.819],[-89.514,46.842],[-89.413,46.844],[-89.228,46.913],[-89.168,46.965]]]}},{"type":"Feature","properties":{"name":"Oscoda","fips":"26135"},"geometry":{"type":"Polygon","coordinates":[[[-84.372,44.855],[-83.888,44.856],[-83.887,44.509],[-84.371,44.507],[-84.372,44.855]]]}},{"type":"Feature","properties":{"name":"Saginaw","fips":"26145"},"geometry":{"type":"Polygon","coordinates":[[[-84.05,43.567],[-84.051,43.524],[-83.916,43.523],[-83.818,43.479],[-83.699,43.479],[-83.696,43.221],[-83.932,43.22],[-83.929,43.133],[-84.368,43.129],[-84.37,43.466],[-84.171,43.482],[-84.168,43.569],[-84.05,43.567]]]}},{"type":"Feature","properties":{"name":"St. Clair","fips":"26147"},"geometry":{"type":"Polygon","coordinates":[[[-82.503,43.169],[-82.486,43.102],[-82.416,43.006],[-82.47,42.888],[-82.484,42.733],[-82.51,42.637],[-82.523,42.608],[-82.584,42.554],[-82.607,42.549],[-82.625,42.557],[-82.686,42.519],[-82.664,42.546],[-82.681,42.558],[-82.688,42.588],[-82.701,42.586],[-82.713,42.598],[-82.683,42.609],[-82.69,42.627],[-82.669,42.637],[-82.646,42.631],[-82.631,42.642],[-82.624,42.665],[-82.635,42.676],[-82.686,42.69],[-82.708,42.684],[-82.739,42.898],[-82.984,42.894],[-82.996,43.154],[-82.503,43.169]]]}},{"type":"Feature","properties":{"name":"Tuscola","fips":"26157"},"geometry":{"type":"Polygon","coordinates":[[[-83.696,43.221],[-83.699,43.597],[-83.666,43.591],[-83.554,43.685],[-83.54,43.709],[-83.516,43.718],[-83.507,43.711],[-83.48,43.715],[-83.467,43.729],[-83.467,43.668],[-83.118,43.675],[-83.104,43.327],[-83.354,43.322],[-83.352,43.235],[-83.461,43.223],[-83.696,43.221]]]}},{"type":"Feature","properties":{"name":"Van Buren","fips":"26159"},"geometry":{"type":"Polygon","coordinates":[[[-86.223,42.072],[-86.224,42.243],[-86.365,42.243],[-86.297,42.358],[-86.274,42.419],[-85.764,42.421],[-85.763,42.069],[-86.223,42.072]]]}},{"type":"Feature","properties":{"name":"Wayne","fips":"26163"},"geometry":{"type":"Polygon","coordinates":[[[-83.552,42.435],[-82.87,42.451],[-82.888,42.398],[-82.919,42.374],[-82.929,42.359],[-82.924,42.352],[-83.064,42.318],[-83.097,42.29],[-83.128,42.239],[-83.134,42.175],[-83.124,42.138],[-83.133,42.088],[-83.158,42.086],[-83.189,42.066],[-83.186,42.029],[-83.295,42.094],[-83.539,42.086],[-83.552,42.435]]]}},{"type":"Feature","properties":{"name":"Calhoun","fips":"26025"},"geometry":{"type":"Polygon","coordinates":[[[-85.26,42.072],[-85.294,42.072],[-85.299,42.42],[-84.719,42.422],[-84.71,42.07],[-85.26,42.072]]]}},{"type":"Feature","properties":{"name":"Crawford","fips":"26039"},"geometry":{"type":"Polygon","coordinates":[[[-84.372,44.855],[-84.371,44.507],[-84.851,44.511],[-84.847,44.858],[-84.372,44.855]]]}},{"type":"Feature","properties":{"name":"Genesee","fips":"26049"},"geometry":{"type":"Polygon","coordinates":[[[-83.928,42.881],[-83.932,43.22],[-83.461,43.223],[-83.453,42.88],[-83.689,42.871],[-83.686,42.783],[-83.922,42.781],[-83.928,42.881]]]}},{"type":"Feature","properties":{"name":"Hillsdale","fips":"26059"},"geometry":{"type":"Polygon","coordinates":[[[-84.397,41.706],[-84.806,41.696],[-84.806,41.743],[-84.825,41.76],[-84.826,42.072],[-84.363,42.074],[-84.36,41.707],[-84.397,41.706]]]}},{"type":"Feature","properties":{"name":"Huron","fips":"26063"},"geometry":{"type":"Polygon","coordinates":[[[-82.606,43.69],[-83.467,43.668],[-83.467,43.729],[-83.44,43.762],[-83.447,43.772],[-83.438,43.787],[-83.412,43.805],[-83.408,43.832],[-83.332,43.88],[-83.334,43.898],[-83.349,43.91],[-83.282,43.938],[-83.261,43.974],[-83.181,43.982],[-83.108,44.003],[-83.066,44.003],[-83.025,44.045],[-82.991,44.049],[-82.967,44.066],[-82.916,44.071],[-82.876,44.045],[-82.793,44.023],[-82.783,44.009],[-82.739,43.989],[-82.679,43.884],[-82.643,43.852],[-82.648,43.843],[-82.634,43.831],[-82.606,43.69]]]}},{"type":"Feature","properties":{"name":"Missaukee","fips":"26113"},"geometry":{"type":"Polygon","coordinates":[[[-84.851,44.511],[-84.852,44.161],[-85.335,44.165],[-85.334,44.512],[-84.851,44.511]]]}},{"type":"Feature","properties":{"name":"Montmorency","fips":"26119"},"geometry":{"type":"Polygon","coordinates":[[[-84.372,44.855],[-84.367,45.199],[-83.881,45.202],[-83.888,44.856],[-84.372,44.855]]]}},{"type":"Feature","properties":{"name":"Ogemaw","fips":"26129"},"geometry":{"type":"Polygon","coordinates":[[[-84.371,44.507],[-83.887,44.509],[-83.884,44.162],[-84.368,44.16],[-84.371,44.507]]]}},{"type":"Feature","properties":{"name":"Otsego","fips":"26137"},"geometry":{"type":"Polygon","coordinates":[[[-84.372,44.855],[-84.847,44.858],[-84.858,45.117],[-84.735,45.115],[-84.734,45.202],[-84.367,45.199],[-84.372,44.855]]]}},{"type":"Feature","properties":{"name":"St. Joseph","fips":"26149"},"geometry":{"type":"Polygon","coordinates":[[[-85.725,41.759],[-85.791,41.759],[-85.76,41.799],[-85.763,42.069],[-85.294,42.072],[-85.292,41.76],[-85.725,41.759]]]}},{"type":"Feature","properties":{"name":"Alcona","fips":"26001"},"geometry":{"type":"Polygon","coordinates":[[[-83.321,44.858],[-83.301,44.83],[-83.296,44.743],[-83.273,44.714],[-83.289,44.653],[-83.314,44.609],[-83.308,44.54],[-83.318,44.512],[-83.887,44.509],[-83.888,44.856],[-83.321,44.858]]]}},{"type":"Feature","properties":{"name":"Leelanau","fips":"26089"},"geometry":{"type":"MultiPolygon","coordinates":[[[[-85.64,44.775],[-86.073,44.778],[-86.066,44.822],[-86.071,44.896],[-86.059,44.911],[-86.038,44.916],[-86.009,44.9],[-85.98,44.906],[-85.932,44.969],[-85.898,44.962],[-85.87,44.939],[-85.807,44.95],[-85.78,44.978],[-85.771,45.015],[-85.746,45.051],[-85.681,45.093],[-85.656,45.146],[-85.619,45.187],[-85.607,45.178],[-85.586,45.18],[-85.551,45.211],[-85.54,45.21],[-85.527,45.189],[-85.531,45.177],[-85.564,45.154],[-85.6,45.149],[-85.614,45.128],[-85.583,45.071],[-85.566,45.059],[-85.566,45.044],[-85.597,45.041],[-85.6,45.022],[-85.622,45.005],[-85.604,44.991],[-85.602,44.927],[-85.626,44.921],[-85.649,44.874],[-85.64,44.775]]],[[[-86.094,45.008],[-86.134,44.997],[-86.155,45.002],[-86.157,45.011],[-86.142,45.04],[-86.118,45.048],[-86.079,45.031],[-86.102,45.023],[-86.094,45.008]]],[[[-86.033,45.158],[-85.993,45.153],[-85.977,45.138],[-85.984,45.087],[-85.977,45.063],[-85.997,45.056],[-86.059,45.101],[-86.065,45.14],[-86.05,45.158],[-86.033,45.158]]]]}},{"type":"Feature","properties":{"name":"Mason","fips":"26105"},"geometry":{"type":"Polygon","coordinates":[[[-86.431,43.819],[-86.463,43.971],[-86.509,44.033],[-86.515,44.058],[-86.501,44.076],[-86.43,44.12],[-86.387,44.179],[-86.042,44.167],[-86.038,43.816],[-86.431,43.819]]]}},{"type":"Feature","properties":{"name":"Arenac","fips":"26011"},"geometry":{"type":"Polygon","coordinates":[[[-83.565,44.163],[-83.573,44.101],[-83.591,44.079],[-83.584,44.057],[-83.65,44.052],[-83.68,44.036],[-83.688,44.021],[-83.68,43.994],[-83.848,43.982],[-83.878,43.959],[-83.891,43.923],[-83.911,43.91],[-84.045,43.911],[-84.045,43.997],[-84.166,43.997],[-84.166,44.162],[-83.565,44.163]]]}},{"type":"Feature","properties":{"name":"Menominee","fips":"26109"},"geometry":{"type":"Polygon","coordinates":[[[-87.306,45.475],[-87.333,45.447],[-87.329,45.423],[-87.392,45.369],[-87.432,45.316],[-87.439,45.293],[-87.601,45.147],[-87.612,45.121],[-87.598,45.101],[-87.582,45.097],[-87.59,45.095],[-87.66,45.108],[-87.731,45.171],[-87.742,45.198],[-87.709,45.26],[-87.648,45.339],[-87.657,45.369],[-87.694,45.39],[-87.751,45.352],[-87.833,45.352],[-87.85,45.34],[-87.888,45.355],[-87.86,45.423],[-87.806,45.472],[-87.793,45.5],[-87.792,45.617],[-87.824,45.647],[-87.824,45.66],[-87.781,45.68],[-87.829,45.723],[-87.697,45.723],[-87.697,45.899],[-87.618,45.899],[-87.617,45.986],[-87.368,45.985],[-87.326,45.899],[-87.328,45.55],[-87.264,45.55],[-87.306,45.475]]]}},{"type":"Feature","properties":{"name":"Baraga","fips":"26013"},"geometry":{"type":"Polygon","coordinates":[[[-88.233,46.934],[-88.144,46.967],[-88.133,46.962],[-88.188,46.919],[-88.175,46.905],[-88.084,46.92],[-88.045,46.913],[-88.045,46.765],[-87.992,46.679],[-88.116,46.678],[-88.117,46.42],[-88.679,46.42],[-88.679,46.852],[-88.552,46.852],[-88.552,46.938],[-88.451,46.939],[-88.476,46.886],[-88.484,46.832],[-88.462,46.787],[-88.438,46.787],[-88.381,46.839],[-88.376,46.857],[-88.352,46.857],[-88.233,46.934]]]}},{"type":"Feature","properties":{"name":"Charlevoix","fips":"26029"},"geometry":{"type":"MultiPolygon","coordinates":[[[[-85.566,45.76],[-85.536,45.75],[-85.501,45.754],[-85.498,45.746],[-85.515,45.749],[-85.522,45.739],[-85.499,45.726],[-85.494,45.699],[-85.506,45.681],[-85.49,45.652],[-85.487,45.621],[-85.534,45.578],[-85.562,45.572],[-85.618,45.583],[-85.63,45.598],[-85.605,45.639],[-85.605,45.682],[-85.572,45.711],[-85.566,45.76]]],[[[-84.734,45.202],[-84.735,45.115],[-85.224,45.118],[-85.223,45.206],[-85.388,45.208],[-85.389,45.235],[-85.372,45.271],[-85.308,45.313],[-85.263,45.319],[-85.21,45.357],[-85.144,45.37],[-85.096,45.367],[-85.012,45.279],[-84.733,45.289],[-84.734,45.202]]]]}},{"type":"Feature","properties":{"name":"Muskegon","fips":"26121"},"geometry":{"type":"Polygon","coordinates":[[[-86.462,43.472],[-86.04,43.467],[-86.039,43.294],[-85.79,43.293],[-85.791,43.205],[-85.908,43.206],[-85.907,43.119],[-86.272,43.118],[-86.408,43.338],[-86.462,43.472]]]}},{"type":"Feature","properties":{"name":"Oceana","fips":"26127"},"geometry":{"type":"Polygon","coordinates":[[[-86.462,43.472],[-86.529,43.593],[-86.541,43.645],[-86.528,43.68],[-86.445,43.771],[-86.431,43.819],[-86.038,43.816],[-86.04,43.467],[-86.462,43.472]]]}},{"type":"Feature","properties":{"name":"Ottawa","fips":"26139"},"geometry":{"type":"Polygon","coordinates":[[[-85.791,43.205],[-85.782,42.768],[-86.209,42.767],[-86.226,42.988],[-86.272,43.118],[-85.907,43.119],[-85.908,43.206],[-85.791,43.205]]]}},{"type":"Feature","properties":{"name":"Presque Isle","fips":"26141"},"geometry":{"type":"Polygon","coordinates":[[[-84.204,45.627],[-84.129,45.562],[-84.117,45.513],[-84.096,45.497],[-84.056,45.489],[-84.029,45.497],[-83.939,45.493],[-83.909,45.486],[-83.807,45.419],[-83.722,45.413],[-83.599,45.353],[-83.57,45.347],[-83.538,45.358],[-83.515,45.346],[-83.489,45.356],[-83.421,45.29],[-83.385,45.274],[-83.388,45.255],[-83.413,45.246],[-83.388,45.207],[-84.247,45.199],[-84.252,45.626],[-84.204,45.627]]]}},{"type":"Feature","properties":{"name":"Sanilac","fips":"26151"},"geometry":{"type":"Polygon","coordinates":[[[-82.996,43.154],[-83.0,43.285],[-83.119,43.284],[-83.12,43.327],[-83.104,43.327],[-83.118,43.675],[-82.606,43.69],[-82.586,43.544],[-82.54,43.438],[-82.523,43.225],[-82.503,43.169],[-82.996,43.154]]]}},{"type":"Feature","properties":{"name":"Schoolcraft","fips":"26153"},"geometry":{"type":"Polygon","coordinates":[[[-85.865,45.968],[-85.893,45.967],[-85.923,45.948],[-85.926,45.932],[-85.914,45.919],[-85.999,45.951],[-86.095,45.967],[-86.159,45.954],[-86.208,45.963],[-86.234,45.946],[-86.278,45.942],[-86.324,45.906],[-86.333,45.852],[-86.349,45.834],[-86.352,45.798],[-86.37,45.789],[-86.416,45.794],[-86.436,45.764],[-86.46,45.758],[-86.49,45.896],[-86.49,46.158],[-86.616,46.159],[-86.615,46.333],[-86.365,46.332],[-86.365,46.506],[-85.865,46.505],[-85.865,45.968]]]}},{"type":"Feature","properties":{"name":"Gogebic","fips":"26053"},"geometry":{"type":"Polygon","coordinates":[[[-88.991,46.097],[-89.125,46.145],[-90.121,46.337],[-90.12,46.36],[-90.167,46.44],[-90.178,46.441],[-90.205,46.479],[-90.284,46.519],[-90.314,46.516],[-90.358,46.54],[-90.4,46.544],[-90.418,46.566],[-90.328,46.608],[-90.307,46.603],[-90.028,46.674],[-89.888,46.766],[-89.865,46.593],[-89.74,46.592],[-89.742,46.505],[-89.365,46.506],[-89.365,46.333],[-88.991,46.333],[-88.991,46.097]]]}},{"type":"Feature","properties":{"name":"Grand Traverse","fips":"26055"},"geometry":{"type":"Polygon","coordinates":[[[-85.64,44.775],[-85.611,44.765],[-85.593,44.77],[-85.582,44.808],[-85.533,44.873],[-85.531,44.89],[-85.559,44.888],[-85.563,44.897],[-85.534,44.926],[-85.52,44.974],[-85.475,44.991],[-85.465,44.961],[-85.486,44.954],[-85.498,44.865],[-85.508,44.848],[-85.556,44.818],[-85.577,44.76],[-85.527,44.748],[-85.505,44.768],[-85.509,44.787],[-85.5,44.804],[-85.463,44.825],[-85.442,44.86],[-85.333,44.812],[-85.334,44.512],[-85.818,44.513],[-85.815,44.775],[-85.64,44.775]]]}},{"type":"Feature","properties":{"name":"Ionia","fips":"26067"},"geometry":{"type":"Polygon","coordinates":[[[-85.312,43.119],[-84.837,43.119],[-84.837,42.77],[-85.31,42.77],[-85.312,43.119]]]}}]}